NORAD_CAT_ID,OBJECT_NAME,OBJECT_TYPE,EPOCH,MEAN_MOTION,ECCENTRICITY,INCLINATION,RA_OF_ASC_NODE,ARG_OF_PERICENTER,MEAN_ANOMALY,BSTAR,MEAN_MOTION_DOT,MEAN_MOTION_DDOT,TLE_LINE0,TLE_LINE1,TLE_LINE2,SEMIMAJOR_AXIS,PERIOD,APOGEE,PERIGEE,DECAYED
55314.0,STARLINK-5305,PAYLOAD,2023-12-09 03:50:51,14.98326658,0.0002796,69.9995,275.8794,256.4247,103.66,0.00014052,1.584e-05,0.0,0 STARLINK-5305,1 55314U 23010AX  23343.16032181  .00001584  00000-0  14052-3 0  9994,2 55314  69.9995 275.8794 0002796 256.4247 103.6600 14.98326658 50398,6950.203,96.107,574.012,570.125,0.0
55314.0,STARLINK-5305,PAYLOAD,2023-12-09 05:26:59,14.98323037,0.0002835,69.9997,275.7101,269.175,90.9084,0.0002373,2.739e-05,0.0,0 STARLINK-5305,1 55314U 23010AX  23343.22708239  .00002739  00000-0  23730-3 0  9991,2 55314  69.9997 275.7101 0002835 269.1750  90.9084 14.98323037 51590,6950.214,96.107,574.05,570.109,0.0
55314.0,STARLINK-5305,PAYLOAD,2023-12-10 05:29:01,14.98325711,0.0002704,70.0005,273.1826,270.7136,89.3713,-2.4191e-05,-3.82e-06,0.0,0 STARLINK-5305,1 55314U 23010AX  23344.22848807 -.00000382  00000-0 -24191-4 0  9995,2 55314  70.0005 273.1826 0002704 270.7136  89.3713 14.98325711 50557,6950.206,96.107,573.95,570.192,0.0
55314.0,STARLINK-5305,PAYLOAD,2023-12-10 19:54:13,14.98330605,0.0002519,70.0009,271.6714,273.5368,86.5503,1.2763e-05,5.9e-07,0.0,0 STARLINK-5305,1 55314U 23010AX  23344.82932420  .00000059  00000-0  12763-4 0  9997,2 55314  70.0009 271.6714 0002519 273.5368  86.5503 14.98330605 50646,6950.191,96.107,573.807,570.305,0.0
55314.0,STARLINK-5305,PAYLOAD,2023-12-10 21:30:21,14.9833026,0.000262,70.0008,271.5028,272.0729,88.013,4.9344e-06,-3.4e-07,0.0,0 STARLINK-5305,1 55314U 23010AX  23344.89608426 -.00000034  00000-0  49344-5 0  9990,2 55314  70.0008 271.5028 0002620 272.0729  88.0130 14.98330260 51843,6950.192,96.107,573.878,570.236,0.0
55314.0,STARLINK-5305,PAYLOAD,2023-12-11 05:31:01,14.98330908,0.0002575,70.0003,270.6611,273.2046,86.8818,2.8573e-06,-5.9e-07,0.0,0 STARLINK-5305,1 55314U 23010AX  23345.22988397 -.00000059  00000-0  28573-5 0  9994,2 55314  70.0003 270.6611 0002575 273.2046  86.8818 14.98330908 51893,6950.19,96.107,573.845,570.265,0.0
55314.0,STARLINK-5305,PAYLOAD,2023-12-11 19:56:14,14.98331609,0.000259,69.9999,269.1457,269.7372,90.349,1.8012e-05,1.22e-06,0.0,0 STARLINK-5305,1 55314U 23010AX  23345.83072268  .00000122  00000-0  18012-4 0  9998,2 55314  69.9999 269.1457 0002590 269.7372  90.3490 14.98331609 50797,6950.188,96.107,573.853,570.253,0.0
55314.0,STARLINK-5305,PAYLOAD,2023-12-11 21:32:22,14.98331496,0.0002595,69.9999,268.9774,268.9039,91.1823,1.7202e-05,1.12e-06,0.0,0 STARLINK-5305,1 55314U 23010AX  23345.89748257  .00000112  00000-0  17202-4 0  9991,2 55314  69.9999 268.9774 0002595 268.9039  91.1823 14.98331496 51998,6950.188,96.107,573.857,570.25,0.0
55314.0,STARLINK-5305,PAYLOAD,2023-12-12 05:33:02,14.98332084,0.0002573,69.9998,268.1359,268.5444,91.542,2.0532e-05,1.52e-06,0.0,0 STARLINK-5305,1 55314U 23010AX  23346.23128169  .00000152  00000-0  20532-4 0  9998,2 55314  69.9998 268.1359 0002573 268.5444  91.5420 14.98332084 52048,6950.186,96.107,573.84,570.263,0.0
55314.0,STARLINK-5305,PAYLOAD,2023-12-12 19:58:15,14.98332089,0.000258,69.9998,266.6213,265.3416,94.7448,-2.463e-06,-1.22e-06,0.0,0 STARLINK-5305,1 55314U 23010AX  23346.83212118 -.00000122  00000-0 -24630-5 0  9995,2 55314  69.9998 266.6213 0002580 265.3416  94.7448 14.98332089 50949,6950.186,96.107,573.845,570.258,0.0
55314.0,STARLINK-5305,PAYLOAD,2023-12-12 21:34:23,14.98331756,0.0002592,69.9997,266.4531,264.4561,95.6302,-7.5465e-06,-1.83e-06,0.0,0 STARLINK-5305,1 55314U 23010AX  23346.89888135 -.00000183  00000-0 -75465-5 0  9998,2 55314  69.9997 266.4531 0002592 264.4561  95.6302 14.98331756 52146,6950.187,96.107,573.854,570.251,0.0
55314.0,STARLINK-5305,PAYLOAD,2023-12-13 03:58:55,14.98333942,0.0002554,69.9998,265.78,262.2347,97.8522,1.9106e-05,1.35e-06,0.0,0 STARLINK-5305,1 55314U 23010AX  23347.16591860  .00000135  00000-0  19106-4 0  9999,2 55314  69.9998 265.7800 0002554 262.2347  97.8522 14.98333942 52185,6950.181,96.107,573.821,570.271,0.0
55314.0,STARLINK-5305,PAYLOAD,2023-12-13 20:00:16,14.98328007,0.0002446,70.0,264.0971,256.8967,103.1919,-4.5473e-05,-6.35e-06,0.0,0 STARLINK-5305,1 55314U 23010AX  23347.83352343 -.00000635  00000-0 -45473-4 0  9997,2 55314  70.0000 264.0971 0002446 256.8967 103.1919 14.98328007 51096,6950.199,96.107,573.764,570.364,0.0
55314.0,STARLINK-5305,PAYLOAD,2023-12-13 21:36:24,14.98327572,0.0002458,70.0,263.9288,256.646,103.4425,-5.0855e-05,-7e-06,0.0,0 STARLINK-5305,1 55314U 23010AX  23347.90028386 -.00000700  00000-0 -50855-4 0  9995,2 55314  70.0000 263.9288 0002458 256.6460 103.4425 14.98327572 52298,6950.2,96.107,573.774,570.357,0.0
55314.0,STARLINK-5305,PAYLOAD,2023-12-14 04:00:56,14.98327193,0.000247,69.9999,263.2558,258.3283,101.7599,-5.3029e-05,-7.26e-06,0.0,0 STARLINK-5305,1 55314U 23010AX  23348.16732457 -.00000726  00000-0 -53029-4 0  9999,2 55314  69.9999 263.2558 0002470 258.3283 101.7599 14.98327193 52338,6950.202,96.107,573.783,570.35,0.0
55314.0,STARLINK-5305,PAYLOAD,2023-12-14 20:02:16,14.9833396,0.0002547,69.9998,261.5722,256.3155,103.7721,7.2125e-06,-7e-08,0.0,0 STARLINK-5305,1 55314U 23010AX  23348.83491814 -.00000007  00000-0  72125-5 0  9992,2 55314  69.9998 261.5722 0002547 256.3155 103.7721 14.98333960 51249,6950.181,96.107,573.816,570.275,0.0
55314.0,STARLINK-5305,PAYLOAD,2023-12-14 21:38:24,14.98333999,0.000255,69.9998,261.4038,256.2648,103.8227,8.1e-06,4e-08,0.0,0 STARLINK-5305,1 55314U 23010AX  23348.90167790  .00000004  00000-0  81000-5 0  9991,2 55314  69.9998 261.4038 0002550 256.2648 103.8227 14.98333999 52445,6950.181,96.107,573.818,570.273,0.0
55314.0,STARLINK-5305,PAYLOAD,2023-12-15 04:02:57,14.98334872,0.0002596,69.9996,260.7304,259.2272,100.8595,3.052e-05,2.71e-06,0.0,0 STARLINK-5305,1 55314U 23010AX  23349.16871612  .00000271  00000-0  30520-4 0  9991,2 55314  69.9996 260.7304 0002596 259.2272 100.8595 14.98334872 52487,6950.178,96.107,573.847,570.239,0.0
55314.0,STARLINK-5305,PAYLOAD,2023-12-15 20:04:18,14.98324102,0.0002487,70.0,259.0479,253.6479,106.4407,-2.3987e-06,-1.22e-06,0.0,0 STARLINK-5305,1 55314U 23010AX  23349.83632393 -.00000122  00000-0 -23987-5 0  9993,2 55314  70.0000 259.0479 0002487 253.6479 106.4407 14.98324102 51394,6950.211,96.107,573.805,570.348,0.0
55314.0,STARLINK-5305,PAYLOAD,2023-12-15 21:40:26,14.98323138,0.0002509,70.0,258.8794,254.8916,105.1965,-6.7132e-06,-1.73e-06,0.0,0 STARLINK-5305,1 55314U 23010AX  23349.90308474 -.00000173  00000-0 -67132-5 0  9997,2 55314  70.0000 258.8794 0002509 254.8916 105.1965 14.98323138 52591,6950.214,96.107,573.823,570.335,0.0
55314.0,STARLINK-5305,PAYLOAD,2023-12-16 04:04:58,14.98324429,0.000254,69.9998,258.2069,254.904,105.1839,-2.1169e-05,-3.45e-06,0.0,0 STARLINK-5305,1 55314U 23010AX  23350.17012583 -.00000345  00000-0 -21169-4 0  9991,2 55314  69.9998 258.2069 0002540 254.9040 105.1839 14.98324429 52636,6950.21,96.107,573.84,570.31,0.0
55314.0,STARLINK-5305,PAYLOAD,2023-12-16 20:06:19,14.98332322,0.0002493,69.9993,256.5188,266.3417,93.7457,1.0629e-05,3.4e-07,0.0,0 STARLINK-5305,1 55314U 23010AX  23350.83771997  .00000034  00000-0  10629-4 0  9997,2 55314  69.9993 256.5188 0002493 266.3417  93.7457 14.98332322 51544,6950.186,96.107,573.783,570.318,0.0
55314.0,STARLINK-5305,PAYLOAD,2023-12-16 21:42:27,14.98332843,0.0002552,69.9992,256.3507,267.6046,92.4821,1.2161e-05,5.2e-07,0.0,0 STARLINK-5305,1 55314U 23010AX  23350.90447955  .00000052  00000-0  12161-4 0  9992,2 55314  69.9992 256.3507 0002552 267.6046  92.4821 14.98332843 52746,6950.184,96.107,573.823,570.275,0.0
55314.0,STARLINK-5305,PAYLOAD,2023-12-17 04:06:58,14.98338533,0.0002379,69.9996,255.6787,264.4358,95.653,5.7554e-05,5.94e-06,0.0,0 STARLINK-5305,1 55314U 23010AX  23351.17151392  .00000594  00000-0  57554-4 0  9995,2 55314  69.9996 255.6787 0002379 264.4358  95.6530 14.98338533 51596,6950.167,96.106,573.685,570.378,0.0
55314.0,STARLINK-5305,PAYLOAD,2023-12-17 20:08:19,14.98328412,0.0002431,70.0001,253.9964,265.3648,94.7233,8.7743e-05,9.54e-06,0.0,0 STARLINK-5305,1 55314U 23010AX  23351.83911726  .00000954  00000-0  87743-4 0  9996,2 55314  70.0001 253.9964 0002431 265.3648  94.7233 14.98328412 51691,6950.198,96.107,573.752,570.373,0.0
55314.0,STARLINK-5305,PAYLOAD,2023-12-17 21:44:27,14.98328987,0.0002392,70.0,253.8285,266.157,93.9316,8.5641e-05,9.29e-06,0.0,0 STARLINK-5305,1 55314U 23010AX  23351.90587715  .00000929  00000-0  85641-4 0  9998,2 55314  70.0000 253.8285 0002392 266.1570  93.9316 14.98328987 52897,6950.196,96.107,573.724,570.399,0.0
55314.0,STARLINK-5305,PAYLOAD,2023-12-18 04:08:59,14.98349007,0.0002295,70.0002,253.1558,268.9088,91.1808,-9.7007e-05,-1.251e-05,0.0,0 STARLINK-5305,1 55314U 23010AX  23352.17290783 -.00001251  00000-0 -97007-4 0  9994,2 55314  70.0002 253.1558 0002295 268.9088  91.1808 14.98349007 51746,6950.134,96.106,573.594,570.404,0.0
55314.0,STARLINK-5305,PAYLOAD,2023-12-18 20:10:21,14.98336115,0.0001938,70.0023,251.4769,237.9208,122.1763,-0.00023028,-2.84e-05,0.0,0 STARLINK-5305,1 55314U 23010AX  23352.84052162 -.00002840  00000-0 -23028-3 0  9991,2 55314  70.0023 251.4769 0001938 237.9208 122.1763 14.98336115 51849,6950.174,96.107,573.386,570.692,0.0
55314.0,STARLINK-5305,PAYLOAD,2023-12-18 21:46:29,14.98325535,0.0002077,70.0021,251.3086,231.1975,128.8999,-7.9602e-05,-1.042e-05,0.0,0 STARLINK-5305,1 55314U 23010AX  23352.90728332 -.00001042  00000-0 -79602-4 0  9990,2 55314  70.0021 251.3086 0002077 231.1975 128.8999 14.98325535 53042,6950.207,96.107,573.515,570.628,0.0
55314.0,STARLINK-5305,PAYLOAD,2023-12-19 02:34:53,14.98324676,0.0002411,69.9996,250.7986,263.0944,96.9941,-0.00012188,-1.547e-05,0.0,0 STARLINK-5305,1 55314U 23010AX  23353.10756552 -.00001547  00000-0 -12188-3 0  9993,2 55314  69.9996 250.7986 0002411 263.0944  96.9941 14.98324676 51881,6950.209,96.107,573.75,570.399,0.0
